OBJECT_NAME,OBJECT_ID,EPOCH,MEAN_MOTION,ECCENTRICITY,INCLINATION,RA_OF_ASC_NODE,ARG_OF_PERICENTER,MEAN_ANOMALY,EPHEMERIS_TYPE,CLASSIFICATION_TYPE,NORAD_CAT_ID,ELEMENT_SET_NO,REV_AT_EPOCH,BSTAR,MEAN_MOTION_DOT,MEAN_MOTION_DDOT
BEIDOU-2 IGSO-1 (C06),2010-036A,2026-05-12T16:32:11.849856,1.00282752,.00588559,54.2951,163.2807,224.5644,197.8413,0,U,36828,999,5774,0,-.41E-6,0
BEIDOU-2 IGSO-2 (C07),2010-068A,2026-05-17T16:15:26.818272,1.00292865,.00546521,47.6069,272.2104,211.9480,101.4506,0,U,37256,999,5648,0,-.224E-5,0
BEIDOU-2 IGSO-3 (C08),2011-013A,2026-05-14T18:01:06.818304,1.00276202,.00339423,62.3634,40.4703,185.9417,24.6219,0,U,37384,999,5532,0,-.206E-5,0
BEIDOU-2 IGSO-4 (C09),2011-038A,2026-05-19T13:00:39.697632,1.00290554,.0158494,54.5943,165.9281,231.3451,127.0637,0,U,37763,999,5435,0,.27E-6,0
BEIDOU-2 M3 (C11),2012-018A,2026-05-17T13:58:10.727904,1.86229893,.00197056,55.7849,305.9066,276.2878,83.4643,0,U,38250,999,9537,0,-.55E-6,0
BEIDOU-2 M4 (C12),2012-018B,2026-05-17T12:20:37.392288,1.86229518,.00109291,55.6853,305.1252,280.3706,79.4822,0,U,38251,999,9537,0,-.55E-6,0
BEIDOU-2 M6 (C14),2012-050B,2026-05-17T18:16:01.277760,1.86230796,.00142762,56.5190,63.9003,352.3539,7.6101,0,U,38775,999,9274,0,-.44E-6,0
BEIDOU-3S M2S (C58),2015-037A,2026-05-19T07:52:22.791648,1.86231911,.0007602,54.8971,303.0395,265.9218,93.9658,0,U,40748,999,7358,0,-.56E-6,0
BEIDOU-3S M1S (C57),2015-037B,2026-05-19T00:03:00.008352,1.86254720,.00040296,54.8942,303.0383,57.2164,302.7967,0,U,40749,999,7358,0,-.56E-6,0
BEIDOU-3S IGSO-2S (C56),2015-053A,2026-05-19T19:27:21.677184,1.00265174,.0064789,49.2678,259.1193,191.1600,175.3820,0,U,40938,999,3907,0,-.155E-5,0
BEIDOU-2 IGSO-6 (C13),2016-021A,2026-05-19T12:05:17.208096,1.00264059,.005733,60.1876,38.3249,232.4490,242.0698,0,U,41434,999,3719,0,-.169E-5,0
BEIDOU-3 M1 (C19),2017-069A,2026-05-19T03:17:50.229024,1.86230738,.0011462,56.6686,64.0414,321.9014,38.0087,0,U,43001,999,5806,0,-.41E-6,0
BEIDOU-3 M2 (C20),2017-069B,2026-05-19T01:49:31.272960,1.86230678,.0009765,56.6672,64.0798,344.7393,15.2220,0,U,43002,999,5805,0,-.41E-6,0
BEIDOU-3 M8 (C28),2018-003B,2026-05-19T07:11:49.608672,1.86230846,.0002173,54.3480,303.3042,276.0200,83.9300,0,U,43108,999,5682,0,-.58E-6,0
BEIDOU-3 M4 (C22),2018-018A,2026-05-18T03:09:43.074720,1.86230951,.0007886,56.6264,64.1398,9.7385,350.2635,0,U,43207,999,5618,0,-.43E-6,0
BEIDOU-3 M3 (C21),2018-018B,2026-05-19T06:31:51.921408,1.86230642,.0009515,56.6270,64.1059,335.4256,24.5205,0,U,43208,999,5620,0,-.41E-6,0
BEIDOU-3 M9 (C29),2018-029A,2026-05-18T09:58:51.636288,1.86227947,.00009309,54.2214,300.9891,116.3065,243.6755,0,U,43245,999,5534,0,-.55E-6,0
BEIDOU-2 IGSO-7 (C16),2018-057A,2026-05-19T11:23:52.603296,1.00260128,.0104388,55.1878,163.3089,237.9948,118.6458,0,U,43539,999,2883,0,-.32E-6,0
BEIDOU-3 M5 (C23),2018-062A,2026-05-19T02:40:38.460000,1.86228797,.00051037,54.0834,183.2930,287.7029,72.3233,0,U,43581,999,5309,0,.56E-6,0
BEIDOU-3 M6 (C24),2018-062B,2026-05-17T08:44:12.235200,1.86227445,.00047385,54.0833,183.3416,15.5717,344.5351,0,U,43582,999,5306,0,.82E-6,0
BEIDOU-3 M12 (C26),2018-067A,2026-05-17T07:15:29.306592,1.86227757,.00077432,54.1786,182.0879,31.4775,328.6606,0,U,43602,999,5254,0,.84E-6,0
BEIDOU-3 M11 (C25),2018-067B,2026-05-19T01:09:29.499840,1.86227309,.00043968,54.1757,181.9925,17.0226,343.0733,0,U,43603,999,5260,0,.58E-6,0
BEIDOU-3 M13 (C32),2018-072A,2026-05-19T00:04:40.526976,1.86231208,.0008188,56.6003,63.6232,322.9807,36.9540,0,U,43622,999,5211,0,-.42E-6,0
